{"spkid": "20380981", "covariance": {"labels": ["e", "q", "tp", "node", "peri", "i"], "elements": [{"label": "e", "units": null, "title": "eccentricity", "value": ".3953807111205554", "sigma": 2.28322012028702e-08, "name": "e"}, {"name": "q", "sigma": 3.97235402700097e-08, "units": "au", "title": "perihelion distance", "value": "1.044064242843934", "label": "q"}, {"label": "tp", "title": "time of perihelion passage", "value": "2458848.230739306803", "units": "TDB", "name": "tp", "sigma": 9.71748795837083e-06}, {"label": "node", "units": "deg", "title": "longitude of the ascending node", "value": "107.3974149963342", "sigma": 2.29886693342215e-05, "name": "om"}, {"title": "argument of perihelion", "value": "167.7255093704001", "units": "deg", "sigma": 2.36426988143228e-05, "name": "w", "label": "peri"}, {"label": "i", "title": "inclination", "value": "9.659986002682841", "units": "deg", "sigma": 2.72999188856707e-06, "name": "i"}], "data": [["5.213094117683489E-16", "-9.061044272033452E-16", "-2.695867188007174E-14", "1.756411000017485E-14", "-1.75266752757095E-15", "-5.592199752665558E-15"], ["-9.061044272033452E-16", "1.57795965158308E-15", "5.06966796292705E-14", "-2.736053006758413E-14", "2.150621571765216E-15", "1.088027195908908E-14"], ["-2.695867188007174E-14", "5.06966796292705E-14", "9.442957222108214E-11", "-2.12602690406787E-11", "7.076350066998209E-11", "4.734250170287434E-12"], ["1.756411000017485E-14", "-2.736053006758413E-14", "-2.12602690406787E-11", "5.284789177581782E-10", "-5.267382354704647E-10", "1.533306111841323E-12"], ["-1.75266752757095E-15", "2.150621571765216E-15", "7.076350066998209E-11", "-5.267382354704647E-10", "5.589772072247815E-10", "6.754935105651943E-13"], ["-5.592199752665558E-15", "1.088027195908908E-14", "4.734250170287434E-12", "1.533306111841323E-12", "6.754935105651943E-13", "7.452855711642013E-12"]], "epoch": "2458980.5"}, "elements": [{"value": ".3952544334914202", "title": "eccentricity", "units": null, "name": "e", "sigma": "2.2863E-8", "label": "e"}, {"name": "a", "sigma": "2.7351E-9", "units": "au", "title": "semi-major axis", "value": "1.727381042168753", "label": "a"}, {"units": "au", "value": "1.044626026922523", "title": "perihelion distance", "sigma": "3.9705E-8", "name": "q", "label": "q"}, {"units": "deg", "title": "inclination; angle with respect to x-y ecliptic plane", "value": "9.661252784947219", "sigma": "2.7305E-6", "name": "i", "label": "i"}, {"value": "107.3587521612089", "title": "longitude of the ascending node", "units": "deg", "sigma": "2.2978E-5", "name": "om", "label": "node"}, {"name": "w", "sigma": "2.3633E-5", "units": "deg", "title": "argument of perihelion", "value": "167.8664474052396", "label": "peri"}, {"label": "M", "name": "ma", "sigma": "5.4011E-6", "units": "deg", "title": "mean anomaly", "value": "301.2665008796562"}, {"label": "tp", "units": "TDB", "value": "2461335.789479141805", "title": "time of perihelion passage", "sigma": "1.2638E-5", "name": "tp"}, {"label": "period", "units": "d", "title": "sidereal orbital period", "value": "829.2407777588016", "name": "per", "sigma": "1.9695E-6"}, {"title": "mean motion", "value": ".4341320514567265", "units": "deg/d", "name": "n", "sigma": "1.0311E-9", "label": "n"}, {"label": "Q", "sigma": "3.8161E-9", "name": "ad", "value": "2.410136057414982", "title": "aphelion distance", "units": "au"}], "epoch": "2461200.5"}